satname,norad_id,inclination_deg,eccentricity,mean_motion_rev_per_day,perigee_km,apogee_km,l1,l2
STARLINK-1008,44714,53.0534,0.0001285,15.06386484,546.3630702285545,548.1428954541452,1 44714U 19074B   25256.29333843  .00001902  00000+0  14663-3 0  9990,2 44714  53.0534 262.9842 0001285  95.6649 264.4487 15.06386484322018
STARLINK-1010,44716,53.0525,0.0010801,15.76286884,333.7143857977826,348.2290044009369,1 44716U 19074D   25255.89749971  .00090096  00000+0  55749-3 0  9992,2 44716  53.0525 217.8453 0010801  26.8167 333.3408 15.76286884322594
STARLINK-1011,44717,53.0514,0.0006147,15.65794062,366.80734639661296,375.1046813478679,1 44717U 19074E   25256.25002315  .00105066  00000+0  10089-2 0  9999,2 44717  53.0514 269.3387 0006147  17.9755 260.3618 15.65794062  5975
STARLINK-1012,44718,53.0537,0.0001271,15.06405389,546.3148317762007,548.0752511811461,1 44718U 19074F   25256.00581268 -.00001862  00000+0 -10616-3 0  9990,2 44718  53.0537 264.2751 0001271  83.9162 276.1972 15.06405389321962
STARLINK-1015,44721,53.0449,0.0002663,15.94689604,287.4039053022052,290.95491802305787,1 44721U 19074J   25256.25002315  .00294355  44910-4  75976-3 0  9994,2 44721  53.0449 204.7728 0002663  24.0705  65.3561 15.94689604  6015
STARLINK-1017,44723,53.0527,0.0003188,15.10599873,532.1656772972738,536.5730913679245,1 44723U 19074L   25256.04785383  .00018561  00000+0  11256-2 0  9996,2 44723  53.0527 262.7906 0003188 346.0165  14.0737 15.10599873321995
STARLINK-1019,44724,53.0545,9.26e-05,15.06395896,546.5828476945417,547.8654245769549,1 44724U 19074M   25255.73674220  .00000420  00000+0  47103-4 0  9996,2 44724  53.0545 265.4826 0000926  72.1171 287.9919 15.06395896321928
STARLINK-1020,44725,53.0541,0.0001179,15.06390391,546.4245062286982,548.0575103630536,1 44725U 19074N   25256.07402298  .00001848  00000+0  14296-3 0  9990,2 44725  53.0541 283.9684 0001179  90.3379 269.7745 15.06390391321699
STARLINK-1021,44726,53.0441,0.0003349,15.88889899,303.1557645798721,307.63239369667826,1 44726U 19074P   25256.25002315  .00319384  00000+0  10640-2 0  9992,2 44726  53.0441 210.3860 0003349  10.7868 268.9005 15.88889899  6055
STARLINK-1029,44734,53.0502,0.0008157,15.83683352,314.57096687747344,325.4983641325789,1 44734U 19074X   25256.25002315  .00168266  00000+0  73484-3 0  9998,2 44734  53.0502 133.9196 0008157  89.8584 211.7455 15.83683352  6043
STARLINK-1030,44735,53.037,0.0002394,16.10451847,244.01832248533356,247.18976969820142,1 44735U 19074Y   25255.22644846  .00677614  25760-3  68261-3 0  9999,2 44735  53.0370 232.0979 0002394 139.4954 220.6259 16.10451847322345
STARLINK-1031,44736,53.0623,0.0008263,15.36572211,450.6073206551182,461.90183617760795,1 44736U 19074Z   25256.30763400  .00063619  00000+0  17505-2 0  9992,2 44736  53.0623 264.2759 0008263 337.2648  22.7987 15.36572211322007
STARLINK-1036,44741,53.0543,0.0001215,15.06399025,546.3731159616036,548.0559763873252,1 44741U 19074AE  25256.10349237  .00000296  00000+0  38774-4 0  9999,2 44741  53.0543 283.8379 0001215  95.2838 264.8290 15.06399025321700
STARLINK-1039,44744,53.0529,0.0004352,15.09054288,536.0780972586608,542.0988503110439,1 44744U 19074AH  25255.84935731  .00009064  00000+0  58337-3 0  9990,2 44744  53.0529 304.4549 0004352 320.2841  39.7830 15.09054288321392
STARLINK-1042,44747,53.0474,0.0003035,15.40614023,442.2253535477257,446.36657035562985,1 44747U 19074AL  25256.16929004  .00013519  00000+0  33624-3 0  9997,2 44747  53.0474 220.5323 0003035  13.6081 346.5004 15.40614023322621
STARLINK-1043,44748,53.0531,0.0001251,15.06403747,546.3337142787977,548.0664336146992,1 44748U 19074AM  25255.87681418  .00001459  00000+0  11679-3 0  9995,2 44748  53.0531 304.8553 0001251  88.8523 271.2609 15.06403747321399
STARLINK-1046,44751,53.0539,0.0001496,15.06383205,546.2269928277146,548.2990725174905,1 44751U 19074AQ  25255.82520836  .00002342  00000+0  17613-3 0  9996,2 44751  53.0539 305.0885 0001496  91.2316 268.8845 15.06383205321380
STARLINK-1047,44752,53.0715,0.0004916,15.27854878,478.85358130724853,485.5986903423918,1 44752U 19074AR  25255.72013330  .00016666  00000+0  61592-3 0  9991,2 44752  53.0715 254.4736 0004916  35.8565 324.2762 15.27854878322095
STARLINK-1048,44753,53.0547,0.0001214,15.06392092,546.3950546680417,548.0765351826494,1 44753U 19074AS  25256.05004827  .00000649  00000+0  62500-4 0  9995,2 44753  53.0547 264.0765 0001214  83.8537 276.2590 15.06392092321971
STARLINK-1053,44758,53.0415,0.0003383,15.54532493,401.2177232498407,405.80618693285487,1 44758U 19074AX  25256.21691761  .00030684  00000+0  46262-3 0  9995,2 44758  53.0415 239.1717 0003383  54.9658 305.1668 15.54532493322357
STARLINK-1054,44759,53.0465,0.0010897,15.62682783,372.5470302463891,387.2755206579104,1 44759U 19074AY  25256.25002315  .00128329  00000+0  13856-2 0  9997,2 44759  53.0465 269.2308 0010897 344.1938 353.3446 15.62682783  5990
STARLINK-1056,44761,53.0445,0.0011408,15.74295528,338.9649641172018,354.30820753061835,1 44761U 19074BA  25256.25002315  .00155888  00000+0  10405-2 0  9997,2 44761  53.0445 259.3330 0011408  10.2383 236.3042 15.74295528  6038
STARLINK-1057,44762,53.0435,0.0003895,15.91033201,296.7895179912439,301.991311847466,1 44762U 19074BB  25256.25002315  .00292146  42828-4  91334-3 0  9997,2 44762  53.0435 231.1890 0003895  18.8543 279.7297 15.91033201  5905
STARLINK-1060,44765,53.0552,0.0001146,15.21247528,501.2880687439956,502.8650136876431,1 44765U 19074BE  25256.25002315  .00931094  00000+0  38052-1 0  9999,2 44765  53.0552 282.4635 0001146  84.2422 199.3214 15.21247528  5632
STARLINK-1063,44768,53.0541,0.0001449,15.06398447,546.2128339679648,548.2198013594234,1 44768U 19074BH  25256.21222353 -.00003861  00000+0 -24048-3 0  9990,2 44768  53.0541 303.3474 0001449  90.5407 269.5748 15.06398447321459
STARLINK-1067,44771,53.0539,0.0002585,15.06406795,545.4005351014148,548.9809295390241,1 44771U 19074BL  25255.86944739  .00008863  00000+0  61307-3 0  9997,2 44771  53.0539 304.8874 0002585  78.9775 281.1504 15.06406795321399
STARLINK-1068,44772,53.0557,0.0001758,15.06386794,546.0345493300019,548.469516113907,1 44772U 19074BM  25255.79387377 -.00001645  00000+0 -91587-4 0  9996,2 44772  53.0557 285.2266 0001758  84.4913 275.6277 15.06386794321654
STARLINK-1098,44917,53.0371,0.0005052,16.34419014,177.37740893466525,184.0044486739298,1 44917U 20001D   25256.28386707  .05498894  12254-4  75335-3 0  9990,2 44917  53.0371   1.7258 0005052 320.9894  39.0785 16.34419014313963
STARLINK-1112,44925,53.054,0.0005065,15.45128345,427.5521534786076,434.4498102542384,1 44925U 20001M   25255.69612400  .00017941  00000+0  38076-3 0  9992,2 44925  53.0540  38.3109 0005065 130.4433 229.7015 15.45128345313406
STARLINK-1114,44927,53.055,0.0001261,15.0640299,546.3291087364869,548.0756793316623,1 44927U 20001P   25256.16430568 -.00000563  00000+0 -18919-4 0  9999,2 44927  53.0550  63.5608 0001261  84.4240 275.6893 15.06402990313098
STARLINK-1123,44930,53.0562,0.0001326,15.0640736,546.2707024624615,548.1072989178438,1 44930U 20001S   25256.17905274  .00000965  00000+0  83656-4 0  9999,2 44930  53.0562  63.4944 0001326  94.8657 265.2483 15.06407360313092
STARLINK-1144,44933,53.0494,0.0009724,15.48378859,414.85608636328743,428.07995821063105,1 44933U 20001V   25255.71707963  .00029298  00000+0  54954-3 0  9994,2 44933  53.0494  16.9498 0009724 258.4658 101.5258 15.48378859315006
STARLINK-1071,44934,53.0359,0.0007109,16.16437309,224.5455043936381,233.93987683775504,1 44934U 20001W   25255.35551801  .00996515  67678-3  66380-3 0  9992,2 44934  53.0359 344.8534 0007109 353.2000   6.8938 16.16437309314116
STARLINK-1091,44940,53.0443,0.0004031,15.72857219,348.02322652105613,353.44804363945696,1 44940U 20001AC  25256.25002315  .00210433  00000+0  14875-2 0  9991,2 44940  53.0443   1.4413 0004031 259.2407  63.6210 15.72857219  5855
STARLINK-1094,44941,53.0555,0.000177,15.06391753,546.0110427522022,548.4626250894107,1 44941U 20001AD  25256.12561604 -.00000616  00000+0 -22487-4 0  9991,2 44941  53.0555  43.7323 0001770 112.4994 247.6182 15.06391753313360
STARLINK-1096,44942,52.9934,0.0003045,15.74247585,344.72538329702274,348.8208535591457,1 44942U 20001AE  25256.21685262  .00071568  00000+0  48742-3 0  9992,2 44942  52.9934 188.3497 0003045 106.0639 254.0714 15.74247585316375
STARLINK-1122,44949,53.055,0.0001165,15.06402312,546.3976697188418,548.0112742818183,1 44949U 20001AM  25255.68329426  .00000833  00000+0  74817-4 0  9996,2 44949  53.0550  45.7161 0001165  89.3981 270.7141 15.06402312313299
STARLINK-1066,44954,53.0418,0.0003875,16.03574752,261.9542320973387,267.10229767762667,1 44954U 20001AS  25255.91363207  .00637987  20352-3  99033-3 0  9991,2 44954  53.0418 328.3842 0003875  18.6246 341.4926 16.03574752314343
STARLINK-1080,44961,53.0564,0.0001172,15.06401839,546.3942714834557,548.0175718642968,1 44961U 20001AZ  25256.07953337  .00000457  00000+0  49583-4 0  9992,2 44961  53.0564  23.9426 0001172  86.5779 273.5344 15.06401839313640
STARLINK-1090,44968,53.0551,0.0001148,15.06400124,546.4161479253398,548.0062078669853,1 44968U 20001BG  25256.08322775 -.00000452  00000+0 -11459-4 0  9994,2 44968  53.0551  23.9268 0001148  80.9420 279.1699 15.06400124313642
STARLINK-1107,44972,53.014,0.0007524,15.54009017,399.9311668772034,410.1384838400036,1 44972U 20001BL  25255.87121130  .00054907  00000+0  83474-3 0  9994,2 44972  53.0140 318.2503 0007524  20.9711 339.1605 15.54009017314547
STARLINK-1132,45044,53.054,0.0001475,15.06394143,546.2080172978203,548.251000417933,1 45044U 20006A   25256.24172570  .00000584  00000+0  58116-4 0  9994,2 45044  53.0540 343.2163 0001475  73.4011 286.7140 15.06394143309995
STARLINK-1131,45047,53.055,0.0002858,15.06395412,545.2463508965111,549.2048881698356,1 45047U 20006D   25256.28418540  .00000547  00000+0  55654-4 0  9994,2 45047  53.0550   3.5611 0002858  81.0393 279.0920 15.06395412309718
